[{"OBJECT_NAME":"STARLINK-3633","OBJECT_ID":"2022-017AB","EPOCH":"2026-03-10T00:00:02.999808","MEAN_MOTION":15.39868705,"ECCENTRICITY":0.00016754,"INCLINATION":53.2187,"RA_OF_ASC_NODE":342.1898,"ARG_OF_PERICENTER":57.4392,"MEAN_ANOMALY":30.5181,"EPHEMERIS_TYPE":0,"CLASSIFICATION_TYPE":"U","NORAD_CAT_ID":51793,"ELEMENT_SET_NO":999,"REV_AT_EPOCH":584,"BSTAR":0.011808492,"MEAN_MOTION_DOT":0.00508972,"MEAN_MOTION_DDOT":0},{"OBJECT_NAME":"PSLV R\/B","OBJECT_ID":"2019-081B","EPOCH":"2026-03-09T21:41:57.489504","MEAN_MOTION":15.51275021,"ECCENTRICITY":0.00222604,"INCLINATION":97.1897,"RA_OF_ASC_NODE":108.7513,"ARG_OF_PERICENTER":106.0396,"MEAN_ANOMALY":254.331,"EPHEMERIS_TYPE":0,"CLASSIFICATION_TYPE":"U","NORAD_CAT_ID":44805,"ELEMENT_SET_NO":999,"REV_AT_EPOCH":34890,"BSTAR":0.00050111254,"MEAN_MOTION_DOT":0.00029651,"MEAN_MOTION_DDOT":0}]
